[
    {
        "Altitude(m)": 605459.026785915,
        "Argument of Periapsis(deg)": 0.0,
        "Eccentricity": 0.0,
        "Inclination(deg)": 60.0,
        "Latitude(deg)": 27.98820746899102,
        "Longitude(deg)": -7.201471852128662,
        "Mean Anomaly(deg)": 32.7273,
        "RAAN(deg)": 75.0,
        "Satellite Name": "Test1 332",
        "Satellite Number": 332,
        "Semi-Major Axis(m)": 6980739.136638005,
        "Time(s)": 0
    },
    {
        "Altitude(m)": 605535.8179899618,
        "Argument of Periapsis(deg)": 0.00010418945913296404,
        "Eccentricity": 0.0,
        "Inclination(deg)": 60.0,
        "Latitude(deg)": 28.501337648892566,
        "Longitude(deg)": -6.844528025047198,
        "Mean Anomaly(deg)": 33.347406145461825,
        "RAAN(deg)": 74.99957995086027,
        "Satellite Name": "Test1 332",
        "Satellite Number": 332,
        "Semi-Major Axis(m)": 6980739.136638005,
        "Time(s)": 10
    }
]